MEAN_MOTION;ECCENTRICITY;INCLINATION;RA_OF_ASC_NODE;ARG_OF_PERICENTER;MEAN_ANOMALY;BSTAR;MEAN_MOTION_DOT;MEAN_MOTION_DDOT;TYPE
14.41917383;0.0082768;98.4051;6.6818;164.0598;196.3225;1.3845E-5;2.0E-8;0;Amateur
14.419175;0.0082832;98.4052;7.7066;160.9381;199.494;1.2618E-5;-2.0E-8;0;Amateur
14.41917598;0.0082894;98.4053;8.6632;158.0234;202.4544;1.2366E-5;-3.0E-8;0;Amateur
14.41917671;0.0082933;98.4053;9.2782;156.1511;204.3556;1.2638E-5;-2.0E-8;0;Amateur
14.4191768;0.0082946;98.4053;9.4832;155.5292;204.987;1.2662E-5;-2.0E-8;0;Amateur
14.41917743;0.0082988;98.4054;10.0981;153.6554;206.8892;1.3026E-5;-1.0E-8;0;Amateur
14.4191778;0.0083012;98.4054;10.5764;152.2019;208.3643;1.3679E-5;2.0E-8;0;Amateur
14.41917871;0.0083086;98.4055;11.6012;149.0824;211.5295;1.4209E-5;3.0E-8;0;Amateur
14.41917994;0.0083141;98.4056;12.6261;145.9623;214.6938;1.5853E-5;9.0E-8;0;Amateur
14.41918075;0.0083187;98.4057;13.5828;143.0662;217.6295;1.6524E-5;1.1E-7;0;Amateur
14.41918115;0.0083201;98.4057;13.8561;142.234;218.4728;1.7206E-5;1.4E-7;0;Amateur
14.41918193;0.0083233;98.4057;14.5395;140.1703;220.5636;1.7251E-5;1.4E-7;0;Amateur
14.4191826;0.0083267;98.4058;15.1544;138.3044;222.4533;1.8246E-5;1.7E-7;0;Amateur
14.41918301;0.0083283;98.4058;15.5644;137.0643;223.7088;1.8401E-5;1.8E-7;0;Amateur
14.41918415;0.0083326;98.4058;16.521;134.1706;226.6372;1.8996E-5;2.0E-7;0;Amateur
14.41918542;0.008337;98.4058;17.546;131.0691;229.774;1.8971E-5;2.0E-7;0;Amateur
14.41918609;0.0083395;98.4058;18.0926;129.4146;231.4465;1.8454E-5;1.8E-7;0;Amateur
14.4191865;0.0083405;98.4058;18.5026;128.1771;232.697;1.7751E-5;1.6E-7;0;Amateur
14.41918717;0.0083431;98.4058;19.0493;126.5234;234.3676;1.649E-5;1.1E-7;0;Amateur
14.41918768;0.0083445;98.4058;19.4593;125.2829;235.6203;1.6467E-5;1.1E-7;0;Amateur
14.41918796;0.0083475;98.4059;20.006;123.6284;237.2905;1.457E-5;5.0E-8;0;Amateur
14.4191885;0.0083487;98.4059;20.4843;122.1797;238.7524;1.4635E-5;5.0E-8;0;Amateur
14.41918955;0.0083533;98.406;21.4409;119.298;241.6589;1.4012E-5;3.0E-8;0;Amateur
14.41918969;0.0083544;98.406;21.7142;118.4719;242.4918;1.3947E-5;3.0E-8;0;Amateur
14.41919071;0.0083569;98.4061;22.4659;116.1998;244.7814;1.4455E-5;5.0E-8;0;Amateur
14.41919113;0.0083586;98.4061;23.0126;114.5477;246.4454;1.3642E-5;2.0E-8;0;Amateur
14.41919143;0.0083596;98.4062;23.4226;113.3119;247.6895;1.3354E-5;1.0E-8;0;Amateur
14.41919232;0.0083625;98.4063;24.3793;110.4175;250.6019;1.3115E-5;0;0;Amateur
14.41919306;0.0083645;98.4064;24.9943;108.5609;252.4689;1.3971E-5;3.0E-8;0;Amateur
14.41919424;0.0083669;98.4065;25.951;105.6744;255.3696;1.4723E-5;5.0E-8;0;Amateur
14.41919479;0.0083668;98.4066;26.3611;104.4371;256.6121;1.5806E-5;9.0E-8;0;Amateur
14.4191955;0.0083683;98.4066;26.9761;102.5815;258.4749;1.7133E-5;1.4E-7;0;Amateur
14.41919557;0.0083686;98.4066;27.1811;101.9643;259.0943;1.7398E-5;1.5E-7;0;Amateur
14.41919604;0.0083685;98.4067;27.3861;101.3479;259.7127;1.7897E-5;1.6E-7;0;Amateur
14.41919665;0.0083697;98.4067;27.9328;99.6972;261.3684;1.8179E-5;1.7E-7;0;Amateur
14.41919716;0.0083701;98.4067;28.3429;98.4612;262.6076;1.8941E-5;2.0E-7;0;Amateur
14.41919852;0.0083713;98.4067;29.368;95.3607;265.714;2.0033E-5;2.4E-7;0;Amateur
14.4191999;0.0083725;98.4067;30.3247;92.4826;268.5952;2.0924E-5;2.7E-7;0;Amateur
14.4192006;0.0083725;98.4068;30.5981;91.657;269.4212;2.2125E-5;3.1E-7;0;Amateur
14.41920186;0.0083729;98.4067;31.2814;89.5974;271.4809;2.2751E-5;3.3E-7;0;Amateur
14.41920285;0.0083735;98.4068;31.8964;87.7517;273.3257;2.3526E-5;3.5E-7;0;Amateur
14.41920296;0.0083733;98.4068;32.1014;87.1354;273.9414;2.329E-5;3.5E-7;0;Amateur
14.41920489;0.0083722;98.4068;33.2632;83.6346;277.437;2.2919E-5;3.3E-7;0;Amateur
14.41920611;0.0083719;98.4069;34.2883;80.5437;280.5203;2.0884E-5;2.6E-7;0;Amateur
14.4192075;0.0083707;98.407;35.3133;77.4558;283.5979;1.8888E-5;2.0E-7;0;Amateur
14.41920871;0.00837;98.4071;36.2018;74.7783;286.2642;1.7219E-5;1.4E-7;0;Amateur
14.41920971;0.0083691;98.4072;36.9535;72.515;288.5165;1.7367E-5;1.4E-7;0;Amateur
14.4192101;0.0083686;98.4072;37.2269;71.6915;289.3356;1.6701E-5;1.2E-7;0;Amateur
14.41921101;0.0083672;98.4072;38.1837;68.8042;292.2062;1.5128E-5;7.0E-8;0;Amateur
14.41921197;0.0083656;98.4073;39.2088;65.7184;295.2715;1.4531E-5;5.0E-8;0;Amateur
14.41921278;0.0083637;98.4074;40.1656;62.8338;298.1348;1.4311E-5;4.0E-8;0;Amateur
14.41921303;0.0083631;98.4074;40.439;62.0108;298.9513;1.4589E-5;5.0E-8;0;Amateur
14.4192137;0.0083608;98.4075;41.1224;59.9409;301.004;1.4937E-5;6.0E-8;0;Amateur
14.41921441;0.0083586;98.4075;41.8742;57.6738;303.251;1.6216E-5;1.0E-7;0;Amateur
14.41921522;0.0083567;98.4075;42.2159;56.6402;304.275;1.7519E-5;1.5E-7;0;Amateur
14.41921673;0.0083536;98.4076;43.1043;53.9528;306.9364;2.0522E-5;2.5E-7;0;Amateur
14.4192176;0.00835;98.4076;44.1295;50.8638;309.9935;1.9625E-5;2.2E-7;0;Amateur
14.41921802;0.0083467;98.4076;44.8813;48.5897;312.2427;1.88E-5;1.9E-7;0;Amateur
14.41921835;0.008346;98.4076;45.0864;47.9737;312.8518;1.8625E-5;1.8E-7;0;Amateur
14.41921917;0.0083435;98.4076;45.7698;45.9086;314.8931;1.8844E-5;1.9E-7;0;Amateur
14.41921937;0.0083429;98.4076;45.9066;45.5005;315.2964;1.9071E-5;2.0E-7;0;Amateur
14.41922063;0.0083396;98.4077;46.6584;43.2212;317.5482;1.9434E-5;2.1E-7;0;Amateur
14.41922109;0.0083371;98.4077;47.0685;41.9769;318.777;1.8721E-5;1.9E-7;0;Amateur
14.41922242;0.0083332;98.4078;48.0254;39.0831;321.6338;1.7876E-5;1.6E-7;0;Amateur
14.41922321;0.0083303;98.4078;48.6405;37.2214;323.471;1.7681E-5;1.5E-7;0;Amateur
14.41922364;0.0083284;98.4078;49.119;35.7766;324.8964;1.6685E-5;1.2E-7;0;Amateur
14.41922408;0.0083247;98.4079;49.7341;33.9142;326.733;1.5598E-5;8.0E-8;0;Amateur
14.4192244;0.0083234;98.4079;50.0075;33.0829;327.5528;1.4974E-5;6.0E-8;0;Amateur
14.41922482;0.0083184;98.408;51.0328;29.9745;330.6169;1.172E-5;-6.0E-8;0;Amateur
14.41922565;0.0083129;98.4081;51.9898;27.0772;333.4717;1.1152E-5;-8.0E-8;0;Amateur
14.41922617;0.0083112;98.4082;52.2632;26.2459;334.2907;1.1974E-5;-5.0E-8;0;Amateur
14.41922709;0.0083068;98.4082;52.9467;24.1722;336.333;1.2858E-5;-2.0E-8;0;Amateur
14.41922791;0.0083035;98.4083;53.5619;22.3079;338.1689;1.4174E-5;3.0E-8;0;Amateur
14.41922822;0.0083009;98.4084;53.972;21.0606;339.3969;1.3885E-5;2.0E-8;0;Amateur
14.4192287;0.0082971;98.4084;54.5872;19.191;341.2373;1.372E-5;1.0E-8;0;Amateur
14.41922916;0.008295;98.4085;54.929;18.1519;342.2601;1.4389E-5;3.0E-8;0;Amateur
14.41922957;0.0082897;98.4085;55.7492;15.6589;344.7135;1.4126E-5;2.0E-8;0;Amateur
14.41922988;0.0082887;98.4085;55.9543;15.0347;345.3278;1.422E-5;3.0E-8;0;Amateur
14.41923088;0.0082829;98.4086;56.9113;12.1203;348.1954;1.5151E-5;6.0E-8;0;Amateur
14.41923125;0.0082811;98.4086;57.1847;11.2878;349.0144;1.589E-5;8.0E-8;0;Amateur
14.4192322;0.0082766;98.4086;57.8683;9.206;351.0624;1.6995E-5;1.2E-7;0;Amateur
14.41923317;0.0082725;98.4086;58.4835;7.3331;352.9047;1.8794E-5;1.8E-7;0;Amateur
14.41923364;0.0082697;98.4086;58.8936;6.0805;354.1368;1.8798E-5;1.8E-7;0;Amateur
14.41923484;0.008263;98.4086;59.8506;3.1635;357.006;1.8825E-5;1.8E-7;0;Amateur
14.41923596;0.0082574;98.4087;60.7393;0.4457;359.6792;1.9515E-5;2.1E-7;0;Amateur
14.41923614;0.0082565;98.4087;60.876;0.0274;0.0906;1.8985E-5;1.9E-7;0;Amateur
14.41923726;0.0082501;98.4087;61.833;357.1051;2.9651;1.8002E-5;1.5E-7;0;Amateur
14.4192374;0.0082482;98.4087;62.1065;356.2715;3.785;1.7223E-5;1.3E-7;0;Amateur
14.41923786;0.0082458;98.4087;62.4483;355.2265;4.813;1.6582E-5;1.1E-7;0;Amateur
14.41923848;0.0082433;98.4087;62.8584;353.9703;6.0487;1.657E-5;1.0E-7;0;Amateur
14.4192397;0.0082395;98.4088;63.4053;352.2991;7.6927;1.861E-5;1.7E-7;0;Amateur
14.41923989;0.0082366;98.4088;63.8155;351.0411;8.9304;1.645E-5;1.0E-7;0;Amateur
14.41924132;0.0082295;98.4089;64.7725;348.1155;11.8091;1.5448E-5;7.0E-8;0;Amateur
14.41924239;0.0082255;98.4089;65.4561;346.0232;13.8681;1.6241E-5;9.0E-8;0;Amateur
14.41924378;0.008219;98.409;66.4132;343.0872;16.758;1.5968E-5;8.0E-8;0;Amateur
14.41924371;0.0082176;98.409;66.6183;342.456;17.3795;1.4636E-5;4.0E-8;0;Amateur
14.41924444;0.008211;98.4091;67.5753;339.5201;20.2703;1.2962E-5;-2.0E-8;0;Amateur
14.41924555;0.0082032;98.4092;68.7375;335.9461;23.7906;1.2462E-5;-4.0E-8;0;Amateur
14.41924659;0.008197;98.4092;69.6946;333.0061;26.6876;1.2851E-5;-3.0E-8;0;Amateur
14.41924714;0.0081957;98.4093;69.9681;332.16;27.5215;1.4235E-5;2.0E-8;0;Amateur
14.41924833;0.0081907;98.4093;70.7201;329.8459;29.8029;1.6031E-5;8.0E-8;0;Amateur
14.41924916;0.008187;98.4093;71.4038;327.7411;31.8786;1.722E-5;1.2E-7;0;Amateur
14.41924928;0.0081867;98.4093;71.4721;327.5302;32.0866;1.7587E-5;1.4E-7;0;Amateur
14.41924975;0.0081853;98.4093;71.6772;326.8978;32.7104;1.8132E-5;1.5E-7;0;Amateur
14.41925081;0.0081789;98.4093;72.7027;323.7389;35.8273;1.8106E-5;1.5E-7;0;Amateur
14.41925121;0.0081756;98.4093;73.318;321.8416;37.7002;1.7292E-5;1.3E-7;0;Amateur
14.41925169;0.0081734;98.4093;73.7282;320.5743;38.9516;1.7024E-5;1.2E-7;0;Amateur
14.41925265;0.008168;98.4093;74.6854;317.6207;41.8692;1.6314E-5;9.0E-8;0;Amateur
14.41925273;0.0081666;98.4093;74.8905;316.9896;42.4928;1.6136E-5;9.0E-8;0;Amateur
14.41925372;0.0081628;98.4092;75.6424;314.6689;44.7867;1.6082E-5;8.0E-8;0;Amateur
14.41925388;0.008161;98.4093;75.9159;313.8247;45.6214;1.5539E-5;6.0E-8;0;Amateur
14.4192546;0.0081578;98.4093;76.5996;311.7102;47.7128;1.479E-5;4.0E-8;0;Amateur
14.4192551;0.008155;98.4093;77.2149;309.8087;49.5943;1.3765E-5;0;0;Amateur
14.41925535;0.0081531;98.4093;77.6252;308.5398;50.8503;1.2661E-5;-3.0E-8;0;Amateur
14.41925606;0.0081478;98.4093;78.5823;305.5743;53.7871;1.124E-5;-8.0E-8;0;Amateur
14.41925704;0.0081437;98.4094;79.5394;302.614;56.7207;1.0614E-5;-1.0E-7;0;Amateur
14.41925752;0.0081412;98.4095;80.0864;300.9204;58.4;1.0155E-5;-1.2E-7;0;Amateur
14.41925798;0.0081398;98.4095;80.565;299.4363;59.872;1.0483E-5;-1.1E-7;0;Amateur
14.41925884;0.0081386;98.4096;81.112;297.7379;61.5573;1.1257E-5;-8.0E-8;0;Amateur
14.4192591;0.0081373;98.4096;81.5222;296.4646;62.8212;1.1106E-5;-9.0E-8;0;Amateur
14.41925954;0.0081359;98.4097;82.1375;294.5607;64.7118;1.121E-5;-8.0E-8;0;Amateur
